{
    "type": "FeatureCollection",
    "features": [
        {
            "type": "Feature",
            "properties": {
                "label": "Tauberbischofsheim (neu)\n30.360 m",
                "infoType": "line",
                "modified": true,
                "labelObject": "Tauberbischofsheim (neu)",
                "text": "30.360 m",
                "description": "Tauberbischofsheim (neu)\n30.360 m"
            },
            "geometry": {
                "type": "LineString",
                "coordinates": [
                    [
                        9.692231459808513,
                        49.64740765125032
                    ],
                    [
                        9.691833360578027,
                        49.64733483220954
                    ],
                    [
                        9.69046202624154,
                        49.64688108472311
                    ],
                    [
                        9.68985836238942,
                        49.64689542568574
                    ],
                    [
                        9.689220323253219,
                        49.64681865570916
                    ],
                    [
                        9.689144522668718,
                        49.6461369493622
                    ],
                    [
                        9.688386379332698,
                        49.645754724386855
                    ],
                    [
                        9.684217945069182,
                        49.64461922786243
                    ],
                    [
                        9.683400688514755,
                        49.64414600711481
                    ],
                    [
                        9.68319128310361,
                        49.64395924673062
                    ],
                    [
                        9.682466591450599,
                        49.644189116110134
                    ],
                    [
                        9.682021157659957,
                        49.644277681958094
                    ],
                    [
                        9.680952922393436,
                        49.6441926571348
                    ],
                    [
                        9.680835929906028,
                        49.6441074040336
                    ],
                    [
                        9.679207814051676,
                        49.64420827893093
                    ],
                    [
                        9.679181207808439,
                        49.64407952333749
                    ],
                    [
                        9.67907338610109,
                        49.644058670498936
                    ],
                    [
                        9.678634874396558,
                        49.644050498961775
                    ],
                    [
                        9.678378921549086,
                        49.6440842268258
                    ],
                    [
                        9.678115443337525,
                        49.64417171139282
                    ],
                    [
                        9.677875807794905,
                        49.6441892286146
                    ],
                    [
                        9.677183277615066,
                        49.64435442073589
                    ],
                    [
                        9.676787682235528,
                        49.64445878887908
                    ],
                    [
                        9.676243056956851,
                        49.644553283559524
                    ],
                    [
                        9.675987620337809,
                        49.64462460234205
                    ],
                    [
                        9.675723168488778,
                        49.644642259989375
                    ],
                    [
                        9.675492395324664,
                        49.64470269109612
                    ],
                    [
                        9.675310431050058,
                        49.644703752566684
                    ],
                    [
                        9.675036296422563,
                        49.64461941007052
                    ],
                    [
                        9.674794801629819,
                        49.64450264878816
                    ],
                    [
                        9.674735790706992,
                        49.644422422921885
                    ],
                    [
                        9.674619402182392,
                        49.644380130587784
                    ],
                    [
                        9.674509207211544,
                        49.64418740513375
                    ],
                    [
                        9.674391261458355,
                        49.6440323239481
                    ],
                    [
                        9.674206926227976,
                        49.64386151529448
                    ],
                    [
                        9.67408219438731,
                        49.64381389968469
                    ],
                    [
                        9.673931537874532,
                        49.64368586505837
                    ],
                    [
                        9.67382282971988,
                        49.64360055666331
                    ],
                    [
                        9.673656596146703,
                        49.6435424394805
                    ],
                    [
                        9.67355645607194,
                        49.643478566259276
                    ],
                    [
                        9.673546258701602,
                        49.64333897128147
                    ],
                    [
                        9.673303514654684,
                        49.64313090171716
                    ],
                    [
                        9.673102941203442,
                        49.642981670998545
                    ],
                    [
                        9.672860126810386,
                        49.64276822958682
                    ],
                    [
                        9.67253025735562,
                        49.642839973313485
                    ],
                    [
                        9.671660263701742,
                        49.64152905013579
                    ],
                    [
                        9.671272950271259,
                        49.64103176353399
                    ],
                    [
                        9.67098452059684,
                        49.640507045971034
                    ],
                    [
                        9.670719285056103,
                        49.639864024205586
                    ],
                    [
                        9.670527971963242,
                        49.63918297441706
                    ],
                    [
                        9.670448968303972,
                        49.638850409929084
                    ],
                    [
                        9.670261422814008,
                        49.63844327526739
                    ],
                    [
                        9.670177395489931,
                        49.638347077870364
                    ],
                    [
                        9.669677289541225,
                        49.63806529151187
                    ],
                    [
                        9.667389706942984,
                        49.6377078793987
                    ],
                    [
                        9.667074862560371,
                        49.637666723282564
                    ],
                    [
                        9.666760678702513,
                        49.63767390441736
                    ],
                    [
                        9.666521144027413,
                        49.6376967689426
                    ],
                    [
                        9.666142485525503,
                        49.63782785998922
                    ],
                    [
                        9.66507829870689,
                        49.637420386185
                    ],
                    [
                        9.664104537689047,
                        49.63879566306499
                    ],
                    [
                        9.66362462957897,
                        49.63938926019474
                    ],
                    [
                        9.662677377775996,
                        49.639067035235655
                    ],
                    [
                        9.661692989867628,
                        49.64027584118965
                    ],
                    [
                        9.661087361695976,
                        49.64013964653402
                    ],
                    [
                        9.660858772092869,
                        49.6403611756518
                    ],
                    [
                        9.660742695882403,
                        49.64034035286953
                    ],
                    [
                        9.66067805887255,
                        49.640453519444826
                    ],
                    [
                        9.660437999085035,
                        49.64043877510635
                    ],
                    [
                        9.660375467766722,
                        49.64070769776418
                    ],
                    [
                        9.66029414322228,
                        49.64081021665715
                    ],
                    [
                        9.66019584164448,
                        49.64088060438366
                    ],
                    [
                        9.659982261047366,
                        49.640989248446296
                    ],
                    [
                        9.659579545845853,
                        49.641179539521346
                    ],
                    [
                        9.659012141083227,
                        49.64142447989172
                    ],
                    [
                        9.658905928228922,
                        49.64152176813299
                    ],
                    [
                        9.658816111229918,
                        49.64160822034234
                    ],
                    [
                        9.658776497371107,
                        49.64173735738637
                    ],
                    [
                        9.658881543136127,
                        49.642166465081125
                    ],
                    [
                        9.65888234040211,
                        49.64222554503967
                    ],
                    [
                        9.658809933184877,
                        49.64237635396761
                    ],
                    [
                        9.658565288396682,
                        49.64263556901641
                    ],
                    [
                        9.658312008104218,
                        49.64286797604706
                    ],
                    [
                        9.658099138577207,
                        49.643030325705126
                    ],
                    [
                        9.657738187757651,
                        49.64325260077418
                    ],
                    [
                        9.657106100261677,
                        49.643610696740495
                    ],
                    [
                        9.656655315572486,
                        49.64391941925938
                    ],
                    [
                        9.656492639901712,
                        49.64412445175779
                    ],
                    [
                        9.656157714042735,
                        49.64443788662785
                    ],
                    [
                        9.655716413207601,
                        49.6448378640313
                    ],
                    [
                        9.654960294101288,
                        49.645202021812274
                    ],
                    [
                        9.654689936670106,
                        49.64539691817181
                    ],
                    [
                        9.654346791215895,
                        49.64571576549403
                    ],
                    [
                        9.65402989448033,
                        49.64614188977214
                    ],
                    [
                        9.65339891184918,
                        49.64600247983464
                    ],
                    [
                        9.653366113934185,
                        49.64602415017174
                    ],
                    [
                        9.651479124461638,
                        49.64533114107433
                    ],
                    [
                        9.650443521698756,
                        49.64489920145365
                    ],
                    [
                        9.649839964964377,
                        49.6446098539434
                    ],
                    [
                        9.649435742956982,
                        49.64438115547426
                    ],
                    [
                        9.649202266536848,
                        49.644551661230174
                    ],
                    [
                        9.648038819855087,
                        49.644144587778044
                    ],
                    [
                        9.647315891109146,
                        49.643896180039015
                    ],
                    [
                        9.647503243659314,
                        49.64336605794962
                    ],
                    [
                        9.64750217521117,
                        49.643285494202296
                    ],
                    [
                        9.647537862782906,
                        49.64316981134487
                    ],
                    [
                        9.647720680152261,
                        49.64292170824979
                    ],
                    [
                        9.647446638212118,
                        49.64283998562925
                    ],
                    [
                        9.64637268525593,
                        49.64262844792523
                    ],
                    [
                        9.645597802925062,
                        49.642514602354986
                    ],
                    [
                        9.645427683886927,
                        49.64247258029806
                    ],
                    [
                        9.64508730475939,
                        49.64237779359072
                    ],
                    [
                        9.644569318648653,
                        49.64230010873143
                    ],
                    [
                        9.64388552989395,
                        49.6421938015127
                    ],
                    [
                        9.643346658493842,
                        49.64210011338794
                    ],
                    [
                        9.64273713467053,
                        49.641979958418155
                    ],
                    [
                        9.641220034844864,
                        49.641717119009826
                    ],
                    [
                        9.640549019631202,
                        49.64163757792979
                    ],
                    [
                        9.639741224505144,
                        49.6415346179001
                    ],
                    [
                        9.63942662419293,
                        49.64151218487358
                    ],
                    [
                        9.637647037042973,
                        49.64141457313957
                    ],
                    [
                        9.636448148586087,
                        49.64144802625895
                    ],
                    [
                        9.63610551274408,
                        49.64149556540867
                    ],
                    [
                        9.63561960841968,
                        49.64165668776117
                    ],
                    [
                        9.63553742620924,
                        49.641697423759304
                    ],
                    [
                        9.634890518916677,
                        49.6418809119552
                    ],
                    [
                        9.634095989229245,
                        49.6421618887474
                    ],
                    [
                        9.633470513762465,
                        49.64240433604556
                    ],
                    [
                        9.63200801385312,
                        49.643481219766684
                    ],
                    [
                        9.631472830058582,
                        49.6439917288555
                    ],
                    [
                        9.631305287466283,
                        49.64414841053938
                    ],
                    [
                        9.630268217161854,
                        49.644868444892765
                    ],
                    [
                        9.630018544519928,
                        49.645071227868485
                    ],
                    [
                        9.629473166265262,
                        49.64575635055123
                    ],
                    [
                        9.629420752754555,
                        49.64586137602843
                    ],
                    [
                        9.629139093360601,
                        49.64615027188832
                    ],
                    [
                        9.628826558606836,
                        49.646611216612314
                    ],
                    [
                        9.628383297364923,
                        49.64719909574056
                    ],
                    [
                        9.628093698035215,
                        49.64751488859984
                    ],
                    [
                        9.627238350192533,
                        49.648223166679365
                    ],
                    [
                        9.626565062316281,
                        49.648616231836456
                    ],
                    [
                        9.626413790687323,
                        49.64875401864749
                    ],
                    [
                        9.625940606711913,
                        49.648624980666554
                    ],
                    [
                        9.625816012545348,
                        49.648585369363936
                    ],
                    [
                        9.624656820352422,
                        49.64850300241646
                    ],
                    [
                        9.624267529152268,
                        49.64846481717819
                    ],
                    [
                        9.62409354616334,
                        49.64844426987077
                    ],
                    [
                        9.62305508965892,
                        49.648423006071866
                    ],
                    [
                        9.621814518498214,
                        49.648120825012626
                    ],
                    [
                        9.620726477209562,
                        49.64777752825183
                    ],
                    [
                        9.6202076526406,
                        49.647635283261806
                    ],
                    [
                        9.619475313605541,
                        49.64729006885552
                    ],
                    [
                        9.617992819962776,
                        49.646170016653265
                    ],
                    [
                        9.616669108680219,
                        49.645172639859986
                    ],
                    [
                        9.616230629391294,
                        49.64483926764968
                    ],
                    [
                        9.614856035450684,
                        49.64406505012488
                    ],
                    [
                        9.614934069649282,
                        49.64402166523139
                    ],
                    [
                        9.614921223311137,
                        49.64398681995244
                    ],
                    [
                        9.615940535520597,
                        49.64348187012387
                    ],
                    [
                        9.615869114194474,
                        49.643393623445256
                    ],
                    [
                        9.61583006565211,
                        49.64324880578871
                    ],
                    [
                        9.617691646911268,
                        49.642306966925176
                    ],
                    [
                        9.617633071952891,
                        49.64225356629892
                    ],
                    [
                        9.618064330497214,
                        49.642017612919965
                    ],
                    [
                        9.618334816321102,
                        49.64182280148368
                    ],
                    [
                        9.618771922020239,
                        49.64139613264677
                    ],
                    [
                        9.618914854009411,
                        49.64125302891328
                    ],
                    [
                        9.617584626737429,
                        49.64071225830614
                    ],
                    [
                        9.618058798448159,
                        49.639947001642184
                    ],
                    [
                        9.618504791821369,
                        49.63924366355815
                    ],
                    [
                        9.618998861470553,
                        49.63841921205027
                    ],
                    [
                        9.619298078842924,
                        49.63788316609227
                    ],
                    [
                        9.619535491012142,
                        49.63769121423571
                    ],
                    [
                        9.619206476148014,
                        49.63750766396842
                    ],
                    [
                        9.620039741131714,
                        49.637019786049116
                    ],
                    [
                        9.62153412908078,
                        49.63616847656846
                    ],
                    [
                        9.621771934434827,
                        49.63600874583676
                    ],
                    [
                        9.620842008582732,
                        49.63539603471163
                    ],
                    [
                        9.620270219056897,
                        49.63498013669179
                    ],
                    [
                        9.620812322323507,
                        49.63468717992129
                    ],
                    [
                        9.621157113648335,
                        49.63448659178649
                    ],
                    [
                        9.621567271473436,
                        49.634223881531035
                    ],
                    [
                        9.620394085714613,
                        49.63366349995233
                    ],
                    [
                        9.620558004968368,
                        49.63354713809189
                    ],
                    [
                        9.619526833107086,
                        49.63277113361981
                    ],
                    [
                        9.6199670181819,
                        49.63259420938623
                    ],
                    [
                        9.621054003337973,
                        49.63223119071483
                    ],
                    [
                        9.621166967887579,
                        49.63233532542925
                    ],
                    [
                        9.621931685284267,
                        49.631992826729494
                    ],
                    [
                        9.62154300582803,
                        49.63166726345544
                    ],
                    [
                        9.621854697130358,
                        49.631466850800194
                    ],
                    [
                        9.6223293348531,
                        49.631074879581135
                    ],
                    [
                        9.62221623393884,
                        49.630960004067674
                    ],
                    [
                        9.62247916058912,
                        49.6308269932956
                    ],
                    [
                        9.622529184344756,
                        49.63085895225446
                    ],
                    [
                        9.622720831739647,
                        49.63064844001155
                    ],
                    [
                        9.622999299609884,
                        49.63043746027413
                    ],
                    [
                        9.62314734955339,
                        49.630374893280624
                    ],
                    [
                        9.622698568801628,
                        49.62987508928576
                    ],
                    [
                        9.623740818701666,
                        49.62957674158592
                    ],
                    [
                        9.623133326899463,
                        49.62895156807085
                    ],
                    [
                        9.623897172855775,
                        49.628222325408
                    ],
                    [
                        9.624156700028749,
                        49.62750116894122
                    ],
                    [
                        9.624301376300087,
                        49.627175423653725
                    ],
                    [
                        9.624430750068443,
                        49.62694644457134
                    ],
                    [
                        9.624678053335424,
                        49.6265637462644
                    ],
                    [
                        9.624792995258792,
                        49.626176390480516
                    ],
                    [
                        9.624893506756322,
                        49.62563065829148
                    ],
                    [
                        9.62501320842466,
                        49.624969338808405
                    ],
                    [
                        9.62511140233171,
                        49.624565959026164
                    ],
                    [
                        9.625493386552357,
                        49.624048248264806
                    ],
                    [
                        9.625543069255748,
                        49.623731071405324
                    ],
                    [
                        9.625782086450346,
                        49.62302613547975
                    ],
                    [
                        9.625821325762363,
                        49.622862097801665
                    ],
                    [
                        9.62534708865999,
                        49.622631007616974
                    ],
                    [
                        9.625303801877282,
                        49.622155878692546
                    ],
                    [
                        9.624839627229068,
                        49.622064386662174
                    ],
                    [
                        9.624155546502186,
                        49.62190962262897
                    ],
                    [
                        9.624433493480314,
                        49.62133876267023
                    ],
                    [
                        9.624743781504987,
                        49.62071132846645
                    ],
                    [
                        9.624837308099506,
                        49.62058996873627
                    ],
                    [
                        9.624893460637919,
                        49.62045538234334
                    ],
                    [
                        9.624945032839083,
                        49.62028590698566
                    ],
                    [
                        9.624951307789342,
                        49.62013010447304
                    ],
                    [
                        9.62501193649424,
                        49.62002235051
                    ],
                    [
                        9.62506385136383,
                        49.61987972989874
                    ],
                    [
                        9.625147562572131,
                        49.61963756790419
                    ],
                    [
                        9.625194346776581,
                        49.61941709060108
                    ],
                    [
                        9.625226108691933,
                        49.61931486373531
                    ],
                    [
                        9.625356076259793,
                        49.61913422206692
                    ],
                    [
                        9.625392246032527,
                        49.61905345667249
                    ],
                    [
                        9.625406889361706,
                        49.61890566589174
                    ],
                    [
                        9.62493495946738,
                        49.61885181547011
                    ],
                    [
                        9.624950050605797,
                        49.618738935995424
                    ],
                    [
                        9.625090871977232,
                        49.618437380997904
                    ],
                    [
                        9.625302851922724,
                        49.61820526881561
                    ],
                    [
                        9.625273962774376,
                        49.61788583046045
                    ],
                    [
                        9.625340964582426,
                        49.61763033014949
                    ],
                    [
                        9.62528913144157,
                        49.617456041749456
                    ],
                    [
                        9.625272185965358,
                        49.61742390526783
                    ],
                    [
                        9.625208537558276,
                        49.61729533699126
                    ],
                    [
                        9.62519731635662,
                        49.61706443018008
                    ],
                    [
                        9.62520468959131,
                        49.61699456300042
                    ],
                    [
                        9.625165841351881,
                        49.61686586075129
                    ],
                    [
                        9.625122860094082,
                        49.616737180804904
                    ],
                    [
                        9.625100407739422,
                        49.616597647318216
                    ],
                    [
                        9.624995600568752,
                        49.61648272948995
                    ],
                    [
                        9.624795593076339,
                        49.61635758274591
                    ],
                    [
                        9.62472092094887,
                        49.61633650039618
                    ],
                    [
                        9.624654069035522,
                        49.61628046211892
                    ],
                    [
                        9.624599410890465,
                        49.61620824400283
                    ],
                    [
                        9.6245490920002,
                        49.6161521164593
                    ],
                    [
                        9.624498738909212,
                        49.61609330340858
                    ],
                    [
                        9.624394414592317,
                        49.6160159817781
                    ],
                    [
                        9.62453766831476,
                        49.61590509662712
                    ],
                    [
                        9.624635079214183,
                        49.61576491631419
                    ],
                    [
                        9.62467148801812,
                        49.61570294948427
                    ],
                    [
                        9.625099250381092,
                        49.615214534458936
                    ],
                    [
                        9.625265752598196,
                        49.61498266775986
                    ],
                    [
                        9.625519769247918,
                        49.61480672700197
                    ],
                    [
                        9.626090652599174,
                        49.61452164561229
                    ],
                    [
                        9.627516644538092,
                        49.61387742087581
                    ],
                    [
                        9.627890399874602,
                        49.61369276871661
                    ],
                    [
                        9.628148671368859,
                        49.61352754172773
                    ],
                    [
                        9.628447545359059,
                        49.61330569467645
                    ],
                    [
                        9.628512843475887,
                        49.61324088409446
                    ],
                    [
                        9.627319623884631,
                        49.61237451371403
                    ],
                    [
                        9.627769719506505,
                        49.61202025094066
                    ],
                    [
                        9.627578333760047,
                        49.611921918871424
                    ],
                    [
                        9.627922833875111,
                        49.61171325409003
                    ],
                    [
                        9.628090208105725,
                        49.61155120585185
                    ],
                    [
                        9.628239634968956,
                        49.61127914227598
                    ],
                    [
                        9.62851572477189,
                        49.61089359267794
                    ],
                    [
                        9.629008997373088,
                        49.610042241375766
                    ],
                    [
                        9.629117710370632,
                        49.60981873988864
                    ],
                    [
                        9.629267610286774,
                        49.60958427171867
                    ],
                    [
                        9.627938969840265,
                        49.60943034632878
                    ],
                    [
                        9.627442402166016,
                        49.60938201116231
                    ],
                    [
                        9.62644995801832,
                        49.609339044127395
                    ],
                    [
                        9.62549560234827,
                        49.60936569023617
                    ],
                    [
                        9.624384000745858,
                        49.609377062713065
                    ],
                    [
                        9.623373247914843,
                        49.60919451315832
                    ],
                    [
                        9.62277972152518,
                        49.60899628250717
                    ],
                    [
                        9.621870964030032,
                        49.60870842988795
                    ],
                    [
                        9.62033493416314,
                        49.60816610887027
                    ],
                    [
                        9.619713015714522,
                        49.60800829971305
                    ],
                    [
                        9.61960015282154,
                        49.60692926388258
                    ],
                    [
                        9.619586033896514,
                        49.606467403875435
                    ],
                    [
                        9.61961615947714,
                        49.60558365644449
                    ],
                    [
                        9.61961064575199,
                        49.60514860699876
                    ],
                    [
                        9.619532842721549,
                        49.60455280406626
                    ],
                    [
                        9.619447083574645,
                        49.60398121465784
                    ],
                    [
                        9.620689613541803,
                        49.60322525587104
                    ],
                    [
                        9.621960516814891,
                        49.60242884603126
                    ],
                    [
                        9.623178347853402,
                        49.60168642129269
                    ],
                    [
                        9.623978027889239,
                        49.601531715544255
                    ],
                    [
                        9.625363165682709,
                        49.601274472805876
                    ],
                    [
                        9.62766332879163,
                        49.600837686522304
                    ],
                    [
                        9.62827639090764,
                        49.600632934952955
                    ],
                    [
                        9.629324831127162,
                        49.600224388197795
                    ],
                    [
                        9.630167494795655,
                        49.599881408567015
                    ],
                    [
                        9.63173490901139,
                        49.59934647225369
                    ],
                    [
                        9.63253271687804,
                        49.59905206228087
                    ],
                    [
                        9.634449145736959,
                        49.59835135501674
                    ],
                    [
                        9.637665470006889,
                        49.598478707771605
                    ],
                    [
                        9.640069485908365,
                        49.59873400699733
                    ],
                    [
                        9.6422788823041,
                        49.59864119830972
                    ],
                    [
                        9.643279420535213,
                        49.598686670093
                    ],
                    [
                        9.643166525423249,
                        49.599527914471174
                    ],
                    [
                        9.643689495216808,
                        49.599704947822545
                    ],
                    [
                        9.644195269442262,
                        49.59983104664532
                    ],
                    [
                        9.64463740543732,
                        49.59983127085839
                    ],
                    [
                        9.644645067142955,
                        49.59978557167681
                    ],
                    [
                        9.645524001140867,
                        49.5996947317179
                    ],
                    [
                        9.645282488431365,
                        49.60049372443624
                    ],
                    [
                        9.645186477974846,
                        49.60073328486518
                    ],
                    [
                        9.64506645473897,
                        49.60103206391085
                    ],
                    [
                        9.645018041188022,
                        49.60112096102884
                    ],
                    [
                        9.644892042295977,
                        49.601280117991
                    ],
                    [
                        9.644819332528158,
                        49.601406749849595
                    ],
                    [
                        9.644814550964016,
                        49.601984196901014
                    ],
                    [
                        9.644840204556008,
                        49.60236273432728
                    ],
                    [
                        9.644875952378417,
                        49.60256664655433
                    ],
                    [
                        9.644924592508367,
                        49.60280808639602
                    ],
                    [
                        9.64491753279343,
                        49.60289943870687
                    ],
                    [
                        9.644975275079998,
                        49.60289105995751
                    ],
                    [
                        9.644904617627263,
                        49.60317344958792
                    ],
                    [
                        9.644854761487458,
                        49.60346646598208
                    ],
                    [
                        9.644875398633257,
                        49.60377788936777
                    ],
                    [
                        9.644944594421863,
                        49.604011157608824
                    ],
                    [
                        9.645219591198108,
                        49.60512149457456
                    ],
                    [
                        9.645256689595064,
                        49.60542745470333
                    ],
                    [
                        9.645253230773063,
                        49.60547850180136
                    ],
                    [
                        9.645344581099396,
                        49.605824444574786
                    ],
                    [
                        9.645572902032452,
                        49.60621527991751
                    ],
                    [
                        9.645602537550545,
                        49.60626882812353
                    ],
                    [
                        9.646216627281682,
                        49.60676762264589
                    ],
                    [
                        9.64690504182671,
                        49.60726062720047
                    ],
                    [
                        9.647218741084574,
                        49.60754355511145
                    ],
                    [
                        9.647461658732794,
                        49.60778659297974
                    ],
                    [
                        9.647260377555234,
                        49.60787903153001
                    ],
                    [
                        9.647541272010528,
                        49.60818094168518
                    ],
                    [
                        9.64816014144416,
                        49.60903689361621
                    ],
                    [
                        9.648359251387719,
                        49.60940371580269
                    ],
                    [
                        9.648993294227184,
                        49.610466374957646
                    ],
                    [
                        9.649592446831253,
                        49.61138957132444
                    ],
                    [
                        9.650268859802306,
                        49.612215646314525
                    ],
                    [
                        9.650692781656048,
                        49.61270205649474
                    ],
                    [
                        9.651166449951136,
                        49.613198927962834
                    ],
                    [
                        9.6514422450254,
                        49.613114120441004
                    ],
                    [
                        9.651940758405203,
                        49.6136135345779
                    ],
                    [
                        9.6524970720436,
                        49.614107249417884
                    ],
                    [
                        9.653449445117182,
                        49.6148538653245
                    ],
                    [
                        9.654350775839841,
                        49.615490649371836
                    ],
                    [
                        9.654667373373403,
                        49.61567417064616
                    ],
                    [
                        9.655142112127665,
                        49.61593736630412
                    ],
                    [
                        9.655591336549028,
                        49.61614699109488
                    ],
                    [
                        9.655815596680794,
                        49.6159174388336
                    ],
                    [
                        9.656609246226886,
                        49.61622716342749
                    ],
                    [
                        9.656751272231935,
                        49.616030303803754
                    ],
                    [
                        9.658250461376566,
                        49.616550865961
                    ],
                    [
                        9.658657504003488,
                        49.61669626261118
                    ],
                    [
                        9.658902412546093,
                        49.61677275334451
                    ],
                    [
                        9.659383820552991,
                        49.61691503847278
                    ],
                    [
                        9.659860554208253,
                        49.617017063186815
                    ],
                    [
                        9.660220978910248,
                        49.61707677859908
                    ],
                    [
                        9.66123061236454,
                        49.617154271852755
                    ],
                    [
                        9.661683667945779,
                        49.61703351364255
                    ],
                    [
                        9.66172097602685,
                        49.61704135740187
                    ],
                    [
                        9.661832754864113,
                        49.617054146756686
                    ],
                    [
                        9.662027816697831,
                        49.617112116156925
                    ],
                    [
                        9.662468559918473,
                        49.61730296308654
                    ],
                    [
                        9.662676423813686,
                        49.61739040050981
                    ],
                    [
                        9.664082085736512,
                        49.61649607399098
                    ],
                    [
                        9.66592855850102,
                        49.617318024904606
                    ],
                    [
                        9.66638961392815,
                        49.61717840254556
                    ],
                    [
                        9.66667758446739,
                        49.6170773746601
                    ],
                    [
                        9.666985780042321,
                        49.616944001472504
                    ],
                    [
                        9.66708044062162,
                        49.61691391364985
                    ],
                    [
                        9.66729320387988,
                        49.616754232808276
                    ],
                    [
                        9.667750690742244,
                        49.61635411543608
                    ],
                    [
                        9.668987996356075,
                        49.61675787946586
                    ],
                    [
                        9.669325644515718,
                        49.61636113399918
                    ],
                    [
                        9.669759563586984,
                        49.61605245773554
                    ],
                    [
                        9.670838909540544,
                        49.615487588210186
                    ],
                    [
                        9.67124406027708,
                        49.61579409196523
                    ],
                    [
                        9.673841173779719,
                        49.614390510785626
                    ],
                    [
                        9.674370401328236,
                        49.61410274762018
                    ],
                    [
                        9.675276789957191,
                        49.61478768186279
                    ],
                    [
                        9.67522845520273,
                        49.614879276684526
                    ],
                    [
                        9.675319270488453,
                        49.61487068991241
                    ],
                    [
                        9.675897549396774,
                        49.61514125359575
                    ],
                    [
                        9.677145017239932,
                        49.61567915487968
                    ],
                    [
                        9.677980500345015,
                        49.61601534518154
                    ],
                    [
                        9.678391841461487,
                        49.61616870437945
                    ],
                    [
                        9.6789605805057,
                        49.61634531011969
                    ],
                    [
                        9.680603983219154,
                        49.61651828545668
                    ],
                    [
                        9.681853022119181,
                        49.61657002004052
                    ],
                    [
                        9.682635353077032,
                        49.61664866525184
                    ],
                    [
                        9.683587034059407,
                        49.616718248260604
                    ],
                    [
                        9.684029396633212,
                        49.61672369225426
                    ],
                    [
                        9.68421986112224,
                        49.616746737719154
                    ],
                    [
                        9.684585160766298,
                        49.61685737628706
                    ],
                    [
                        9.684866217468132,
                        49.61685571386524
                    ],
                    [
                        9.685626120882786,
                        49.61680824492985
                    ],
                    [
                        9.686538761692752,
                        49.61674643692056
                    ],
                    [
                        9.68786031931962,
                        49.616663392942776
                    ],
                    [
                        9.688124842043626,
                        49.616661820850304
                    ],
                    [
                        9.688871083357947,
                        49.61681852297923
                    ],
                    [
                        9.68878381734819,
                        49.61737229089538
                    ],
                    [
                        9.689106171160358,
                        49.61736768678736
                    ],
                    [
                        9.689955946904623,
                        49.6175371939343
                    ],
                    [
                        9.690869132021438,
                        49.61780568633974
                    ],
                    [
                        9.69071885837247,
                        49.61799458016785
                    ],
                    [
                        9.69279827227643,
                        49.61859180213257
                    ],
                    [
                        9.692758287891346,
                        49.61897877827823
                    ],
                    [
                        9.693522654359928,
                        49.61895271623656
                    ],
                    [
                        9.694051609510279,
                        49.618941489132744
                    ],
                    [
                        9.695190122990228,
                        49.61877351732546
                    ],
                    [
                        9.696135050884596,
                        49.61865504068716
                    ],
                    [
                        9.696777744091444,
                        49.61850346210781
                    ],
                    [
                        9.696859417365603,
                        49.618723195685604
                    ],
                    [
                        9.69761860891282,
                        49.61862462456194
                    ],
                    [
                        9.697943461240348,
                        49.61995207455867
                    ],
                    [
                        9.69883666758445,
                        49.61997354271564
                    ],
                    [
                        9.698838242262788,
                        49.62008364578791
                    ],
                    [
                        9.699728202370354,
                        49.620166897136244
                    ],
                    [
                        9.700148660246645,
                        49.620083784779304
                    ],
                    [
                        9.702079470985508,
                        49.62068173879973
                    ],
                    [
                        9.70236209269947,
                        49.62078745134743
                    ],
                    [
                        9.70217859346681,
                        49.62096313323073
                    ],
                    [
                        9.702686590214705,
                        49.62121787540614
                    ],
                    [
                        9.703374345593769,
                        49.621611178265056
                    ],
                    [
                        9.703624830617818,
                        49.62149417217465
                    ],
                    [
                        9.704963392838058,
                        49.62200973476301
                    ],
                    [
                        9.706239590320985,
                        49.622498805628844
                    ],
                    [
                        9.707381202500807,
                        49.62282754455002
                    ],
                    [
                        9.707699710786951,
                        49.62226966372979
                    ],
                    [
                        9.708325328477883,
                        49.62236520740363
                    ],
                    [
                        9.708848230956269,
                        49.62250434743907
                    ],
                    [
                        9.709087010392269,
                        49.622151062022674
                    ],
                    [
                        9.709331790250642,
                        49.62221133291446
                    ],
                    [
                        9.709542058627338,
                        49.62188776362567
                    ],
                    [
                        9.71032370226375,
                        49.622194508245954
                    ],
                    [
                        9.710552601161314,
                        49.62173116780233
                    ],
                    [
                        9.711202745243659,
                        49.62180774567894
                    ],
                    [
                        9.711505842260703,
                        49.621330519078185
                    ],
                    [
                        9.712436476321594,
                        49.621365080668234
                    ],
                    [
                        9.712589752040095,
                        49.62110362697126
                    ],
                    [
                        9.713240988432249,
                        49.62125538553198
                    ],
                    [
                        9.713474161862482,
                        49.62052075980309
                    ],
                    [
                        9.713818591662996,
                        49.61947928067357
                    ],
                    [
                        9.714125323826767,
                        49.618687800613834
                    ],
                    [
                        9.715677944770428,
                        49.61942214423331
                    ],
                    [
                        9.716115530620453,
                        49.619663834534244
                    ],
                    [
                        9.716419237176776,
                        49.61979623913272
                    ],
                    [
                        9.71719990974703,
                        49.620317797396886
                    ],
                    [
                        9.718961492854671,
                        49.621480509992864
                    ],
                    [
                        9.72005922184318,
                        49.62219344791031
                    ],
                    [
                        9.721817838462878,
                        49.623425962852664
                    ],
                    [
                        9.721996421339796,
                        49.62348124836891
                    ],
                    [
                        9.722030840385159,
                        49.623572346592354
                    ],
                    [
                        9.72222035643315,
                        49.62352819366491
                    ],
                    [
                        9.722307363014737,
                        49.62354107920043
                    ],
                    [
                        9.7224107059853,
                        49.62354043436301
                    ],
                    [
                        9.722542349551492,
                        49.62349664203129
                    ],
                    [
                        9.722528316650966,
                        49.62366592702659
                    ],
                    [
                        9.72265884279118,
                        49.624105562692755
                    ],
                    [
                        9.722710752008616,
                        49.62426100767725
                    ],
                    [
                        9.722730941906278,
                        49.62450796353657
                    ],
                    [
                        9.722699418310375,
                        49.624892211530344
                    ],
                    [
                        9.722669724135073,
                        49.62512067906512
                    ],
                    [
                        9.722534054918407,
                        49.62573117351391
                    ],
                    [
                        9.722533972160068,
                        49.626005112590796
                    ],
                    [
                        9.722620583205613,
                        49.62627045353313
                    ],
                    [
                        9.722942949882128,
                        49.62682168929874
                    ],
                    [
                        9.723212972177913,
                        49.62718793979666
                    ],
                    [
                        9.723265284131495,
                        49.627370238657726
                    ],
                    [
                        9.72323153667707,
                        49.62760410290836
                    ],
                    [
                        9.723074402266853,
                        49.62844032819638
                    ],
                    [
                        9.723368525427153,
                        49.62903739540808
                    ],
                    [
                        9.723541248871062,
                        49.62925385538083
                    ],
                    [
                        9.723616738592085,
                        49.629325896670856
                    ],
                    [
                        9.723691472606326,
                        49.62934691489167
                    ],
                    [
                        9.724053491319475,
                        49.63117627845167
                    ],
                    [
                        9.724199083079188,
                        49.63179307184806
                    ],
                    [
                        9.724291640211394,
                        49.63217922924141
                    ],
                    [
                        9.724324285033806,
                        49.632428792257265
                    ],
                    [
                        9.724254563479477,
                        49.632746137414195
                    ],
                    [
                        9.724195134223919,
                        49.63292107767022
                    ],
                    [
                        9.724206389680276,
                        49.63312243244049
                    ],
                    [
                        9.724296560014354,
                        49.63334746454572
                    ],
                    [
                        9.724406089598322,
                        49.63348374837206
                    ],
                    [
                        9.724707045278443,
                        49.6337020897128
                    ],
                    [
                        9.725015276218,
                        49.63385324299027
                    ],
                    [
                        9.72530259676826,
                        49.63398841243575
                    ],
                    [
                        9.725545555222155,
                        49.63419905791218
                    ],
                    [
                        9.725608571939542,
                        49.634265804689086
                    ],
                    [
                        9.725146171904653,
                        49.63431435820556
                    ],
                    [
                        9.724861023166076,
                        49.63488281990073
                    ],
                    [
                        9.724452861846858,
                        49.6355218779999
                    ],
                    [
                        9.724023407178807,
                        49.63556216383742
                    ],
                    [
                        9.724157955190531,
                        49.63599102917559
                    ],
                    [
                        9.724450026642616,
                        49.636445765428505
                    ],
                    [
                        9.724572915433145,
                        49.636367112044205
                    ],
                    [
                        9.725246355495207,
                        49.63688391489188
                    ],
                    [
                        9.725656039621265,
                        49.63718214254899
                    ],
                    [
                        9.725954628538311,
                        49.6372393553582
                    ],
                    [
                        9.72570423690317,
                        49.63736446582045
                    ],
                    [
                        9.724418446492338,
                        49.63738326090885
                    ],
                    [
                        9.723240440516015,
                        49.63742016811468
                    ],
                    [
                        9.722992903563371,
                        49.63745931352299
                    ],
                    [
                        9.722729065074985,
                        49.637514674164606
                    ],
                    [
                        9.722556591264707,
                        49.63759632070301
                    ],
                    [
                        9.72240809210437,
                        49.637621418388704
                    ],
                    [
                        9.722123259797915,
                        49.637655423305205
                    ],
                    [
                        9.72219263533489,
                        49.637872529573094
                    ],
                    [
                        9.720849971372587,
                        49.637961467080856
                    ],
                    [
                        9.721242394083658,
                        49.63793216644006
                    ],
                    [
                        9.721312113570882,
                        49.638452751372284
                    ],
                    [
                        9.72140995559859,
                        49.638637452726094
                    ],
                    [
                        9.721357708109512,
                        49.63873983358447
                    ],
                    [
                        9.721557783030423,
                        49.63996593613321
                    ],
                    [
                        9.721697839117102,
                        49.640768077143726
                    ],
                    [
                        9.721836748619094,
                        49.64149234074923
                    ],
                    [
                        9.722017129220221,
                        49.64250371159796
                    ],
                    [
                        9.72109844197751,
                        49.642745775475454
                    ],
                    [
                        9.720088364382047,
                        49.64240024001104
                    ],
                    [
                        9.71989333134397,
                        49.64235579655779
                    ],
                    [
                        9.719324794444386,
                        49.64250435607998
                    ],
                    [
                        9.718659955409835,
                        49.64257294067722
                    ],
                    [
                        9.718260882354148,
                        49.642715071620785
                    ],
                    [
                        9.71739342219499,
                        49.643348895148144
                    ],
                    [
                        9.716564768532812,
                        49.643528594789835
                    ],
                    [
                        9.715778960632045,
                        49.64352808416472
                    ],
                    [
                        9.714892369126536,
                        49.643423449673435
                    ],
                    [
                        9.713673143585254,
                        49.64319731872923
                    ],
                    [
                        9.713536361718287,
                        49.643176676470596
                    ],
                    [
                        9.713585633141722,
                        49.64315220183671
                    ],
                    [
                        9.713573334072224,
                        49.642593659628844
                    ],
                    [
                        9.711855209972526,
                        49.642469952843726
                    ],
                    [
                        9.7117574000804,
                        49.64313659868933
                    ],
                    [
                        9.711799341217977,
                        49.643176625796855
                    ],
                    [
                        9.711683902583058,
                        49.64320150640805
                    ],
                    [
                        9.711095044555083,
                        49.64337700697259
                    ],
                    [
                        9.709923911234885,
                        49.64389715547008
                    ],
                    [
                        9.709421180874926,
                        49.64402377741458
                    ],
                    [
                        9.708887822890418,
                        49.644035101208615
                    ],
                    [
                        9.708647264239719,
                        49.6439882318949
                    ],
                    [
                        9.708614258496729,
                        49.64399380523028
                    ],
                    [
                        9.708584530750393,
                        49.64394027391906
                    ],
                    [
                        9.708645747796558,
                        49.64359882009611
                    ],
                    [
                        9.708602717544158,
                        49.64348359996123
                    ],
                    [
                        9.708544003249974,
                        49.64342756037295
                    ],
                    [
                        9.70812523575163,
                        49.643354923800054
                    ],
                    [
                        9.708075532950698,
                        49.64334985645153
                    ],
                    [
                        9.707464242412199,
                        49.643119940635046
                    ],
                    [
                        9.706605262871346,
                        49.64292107579272
                    ],
                    [
                        9.706374947069168,
                        49.64329578829966
                    ],
                    [
                        9.706304994816632,
                        49.643320386020704
                    ],
                    [
                        9.705973502061997,
                        49.64327675151664
                    ],
                    [
                        9.705155918378997,
                        49.64308030917472
                    ],
                    [
                        9.705000543610472,
                        49.642917429953776
                    ],
                    [
                        9.704956876887783,
                        49.64304392198339
                    ],
                    [
                        9.70461374467752,
                        49.64276670180524
                    ],
                    [
                        9.704384556323877,
                        49.642647241550634
                    ],
                    [
                        9.703539507458624,
                        49.64226564415593
                    ],
                    [
                        9.70302386626972,
                        49.6420700372707
                    ],
                    [
                        9.702591707338893,
                        49.64221500070199
                    ],
                    [
                        9.70229206952126,
                        49.64237258706021
                    ],
                    [
                        9.701685636590446,
                        49.64276568501632
                    ],
                    [
                        9.70138158704003,
                        49.64290449609422
                    ],
                    [
                        9.701040934204489,
                        49.64308649859894
                    ],
                    [
                        9.700606551718401,
                        49.64336575113888
                    ],
                    [
                        9.700022556822578,
                        49.643594879120826
                    ],
                    [
                        9.699483661699498,
                        49.643796875061994
                    ],
                    [
                        9.698934969926267,
                        49.644181552608195
                    ],
                    [
                        9.698287785221947,
                        49.64462053480283
                    ],
                    [
                        9.697733519162005,
                        49.64490587072771
                    ],
                    [
                        9.698217659619456,
                        49.645211803167406
                    ],
                    [
                        9.698660219548659,
                        49.645501870527426
                    ],
                    [
                        9.698986256732345,
                        49.64574161214957
                    ],
                    [
                        9.698451891931438,
                        49.645973118085244
                    ],
                    [
                        9.69690338528304,
                        49.64498875455122
                    ],
                    [
                        9.696723183679605,
                        49.64511337947047
                    ],
                    [
                        9.696111272880284,
                        49.64483775132581
                    ],
                    [
                        9.69554297792631,
                        49.64501036331858
                    ],
                    [
                        9.695122909620574,
                        49.64513642645789
                    ],
                    [
                        9.694719228604615,
                        49.645251647097126
                    ],
                    [
                        9.694310100710855,
                        49.645565637867726
                    ],
                    [
                        9.693392992825945,
                        49.64622374929788
                    ],
                    [
                        9.692848132700968,
                        49.64659226080599
                    ],
                    [
                        9.692572315275264,
                        49.64697527466659
                    ],
                    [
                        9.692243414099362,
                        49.64740694709729
                    ]
                ]
            }
        },
        {
            "type": "Feature",
            "properties": {
                "label": "Tauberbischofsheim (alter Grenzverlauf Hänglein-Bösehof)\n2.758 m",
                "infoType": "line",
                "modified": true,
                "labelObject": "Tauberbischofsheim (alter Grenzverlauf Hänglein-Bösehof)",
                "text": "2.758 m",
                "description": "Tauberbischofsheim (alter Grenzverlauf Hänglein-Bösehof)\n2.758 m"
            },
            "geometry": {
                "type": "LineString",
                "coordinates": [
                    [
                        9.70228653629453,
                        49.64236803691322
                    ],
                    [
                        9.702913177737845,
                        49.64309204875142
                    ],
                    [
                        9.703120803541399,
                        49.64372460434892
                    ],
                    [
                        9.703343158482696,
                        49.644230843930494
                    ],
                    [
                        9.703908813220176,
                        49.64502504788072
                    ],
                    [
                        9.704182746314826,
                        49.64566525524343
                    ],
                    [
                        9.70483910619758,
                        49.64643741751689
                    ],
                    [
                        9.705639189672219,
                        49.64713618732583
                    ],
                    [
                        9.706089264800509,
                        49.646797735850676
                    ],
                    [
                        9.706537872647289,
                        49.64607255632314
                    ],
                    [
                        9.70691779561821,
                        49.64546059212038
                    ],
                    [
                        9.707278576024848,
                        49.645240850170396
                    ],
                    [
                        9.70589102565836,
                        49.643957514604445
                    ],
                    [
                        9.705064472391111,
                        49.64314073827955
                    ],
                    [
                        9.704959691656779,
                        49.64304469245944
                    ],
                    [
                        9.70499926177487,
                        49.6429209110368
                    ],
                    [
                        9.705085896503503,
                        49.642619589244696
                    ],
                    [
                        9.705163794114544,
                        49.64228609262982
                    ],
                    [
                        9.70517526922473,
                        49.642221566827054
                    ],
                    [
                        9.706188343685556,
                        49.6422100207662
                    ],
                    [
                        9.7084132195414,
                        49.642201800259166
                    ],
                    [
                        9.711952425387533,
                        49.6415704453472
                    ],
                    [
                        9.71389120411277,
                        49.64123085607409
                    ],
                    [
                        9.716126822966752,
                        49.640830313974625
                    ],
                    [
                        9.716175736228166,
                        49.640781669455095
                    ],
                    [
                        9.715776442914397,
                        49.63949770517309
                    ],
                    [
                        9.716288601326614,
                        49.63945425272201
                    ],
                    [
                        9.71689484026776,
                        49.63934038819415
                    ],
                    [
                        9.7187703235649,
                        49.63892322447298
                    ],
                    [
                        9.719623819739736,
                        49.638751411344494
                    ],
                    [
                        9.720870570274048,
                        49.63860668635422
                    ],
                    [
                        9.720844635136729,
                        49.63797034492097
                    ],
                    [
                        9.721228708720455,
                        49.63793572497643
                    ],
                    [
                        9.721204940470708,
                        49.63772639104764
                    ],
                    [
                        9.721944535325761,
                        49.637684182196544
                    ],
                    [
                        9.722121899896974,
                        49.63765353373661
                    ]
                ]
            }
        }
    ]
}