{"type": "FeatureCollection", "features": [{"type": "Feature", "geometry": {"type": "LineString", "coordinates": [[9.614858010157125, 49.644061520337274], [9.619442023934253, 49.603981691118264], [9.622573150335988, 49.60205179820684], [9.62317106962377, 49.601686271898664], [9.634446230579071, 49.59834391132222], [9.64228807312123, 49.598643724131314], [9.643287841722836, 49.59869052179756], [9.714100083735193, 49.61869930750059], [9.71564035548738, 49.61943285302919], [9.716386365037957, 49.61980538913081], [9.722548611025672, 49.62348246590656], [9.725618799706345, 49.63426991269183], [9.725950906720982, 49.637242750150044], [9.721991828351491, 49.64250603770693], [9.721078342848866, 49.642749730955806], [9.716552573320367, 49.64354094137681], [9.692227668258367, 49.647420296399595], [9.626412333483323, 49.64875121053907], [9.62307447929212, 49.648425353734176], [9.621821686307177, 49.64811412641888], [9.620208578857978, 49.64762654145423], [9.619483521626233, 49.647287005822626]]}, "properties": {}}]}